1P/Halley,e,162.2006,59.1704,112.0937,17.87152,0.0130455,0.96645205,173.4013,07/14.0/2022,2000,g  4.0,6.0
# From MPEC 2022-N37
2P/Encke,e,11.4761,334.2827,187.0450,2.219608,0.2980503,0.84830823,221.4906,07/14.0/2022,2000,g 11.5,6.0
# From MPEC 2022-L66
4P/Faye,e,8.0087,192.9260,207.0223,3.825168,0.1317432,0.57674994,40.5932,07/14.0/2022,2000,g  8.0,6.0
# From MPEC 2022-L66
6P/d'Arrest,e,19.5121,138.9338,178.0852,3.496992,0.1507170,0.61264102,45.1035,07/14.0/2022,2000,g  7.5,16.0
# From MPEC 2021-Y10
7P/Pons-Winnecke,e,22.3660,93.3436,172.5683,3.411596,0.1564111,0.63848732,64.5874,07/14.0/2022,2000,g 10.0,6.0
# From MPEC 2022-HC2
8P/Tuttle,e,54.9160,270.1981,207.4815,5.704830,0.0723336,0.82017486,23.1666,07/14.0/2022,2000,g  8.0,8.0
# From MPEC 2022-N37
9P/Tempel,e,10.4697,68.7121,179.3649,3.146432,0.1765943,0.50918801,23.1390,07/14.0/2022,2000,g  5.5,10.0
# From MPEC 2022-HC2
10P/Tempel,e,12.0384,117.8119,195.5111,3.061074,0.1840320,0.53836524,87.7438,07/14.0/2022,2000,g  5.0,10.0
# From MPEC 2022-K19
11P/Tempel-Swift-LINEAR,e,14.4244,238.8846,167.9728,3.283795,0.1656304,0.57731755,98.4845,07/14.0/2022,2000,g 17.0,4.0
# From MPEC 2022-M88
12P/Pons-Brooks,e,74.1691,255.8175,198.9807,17.16886,0.0138545,0.95447540,351.0330,07/14.0/2022,2000,g  5.0,6.0
# From  27, 604
13P/Olbers,e,44.6168,85.9431,64.3895,16.78151,0.0143370,0.92996850,349.7052,07/14.0/2022,2000,g  5.0,6.0
# From MPEC 2021-F20
14P/Wolf,e,27.9243,202.0418,159.0726,4.258179,0.1121678,0.35719232,188.7849,07/14.0/2022,2000,g  5.5,12.0
# From MPEC 2022-ED3
15P/Finlay,e,6.7980,13.7090,347.8509,3.507186,0.1500603,0.71706775,54.8482,07/14.0/2022,2000,g 12.0,4.0
# From MPEC 2022-C56
16P/Brooks,e,3.0117,138.8697,245.2195,3.657845,0.1408855,0.48642239,63.6294,07/14.0/2022,2000,g  7.5,10.0
# From MPEC 2022-ED3
17P/Holmes,e,19.0312,326.6235,24.5252,3.636827,0.1421085,0.42761295,72.3428,07/14.0/2022,2000,g 10.0,6.0
# From MPEC 2022-N37
19P/Borrelly,e,29.3041,74.2441,351.9215,3.605662,0.1439549,0.63771366,23.3451,07/14.0/2022,2000,g  4.5,10.0
# From MPEC 2021-F20
21P/Giacobini-Zinner,e,32.0556,195.3449,172.8780,3.495229,0.1508310,0.71121551,211.3945,07/14.0/2022,2000,g 11.4,4.0
# From MPEC 2022-N37
22P/Kopff,e,4.7419,120.8292,163.0326,3.441707,0.1543630,0.54894209,18.1921,07/14.0/2022,2000,g  3.0,10.4
# From MPC 14747
23P/Brorsen-Metcalf,e,19.1829,312.2263,128.9751,16.94542,0.0141295,0.97182691,0.0000,08/05.8058/1989,2000,g 10.0,6.0
# From MPC110085
24P/Schaumasse,e,11.5093,78.3978,58.4027,4.054579,0.1207217,0.70774300,206.0485,07/14.0/2022,2000,g  6.5,14.0
# From MPEC 2022-K19
26P/Grigg-Skjellerup,e,22.4319,211.5387,2.1564,3.014907,0.1882752,0.64033693,260.3121,07/14.0/2022,2000,g 12.0,16.0
# From MPC 78188
27P/Crommelin,e,29.3015,250.6435,195.8875,9.182121,0.0354233,0.91870827,141.9922,07/14.0/2022,2000,g 12.0,8.0
# From MPEC 2022-F14
28P/Neujmin,e,14.3120,346.3324,347.4409,6.978739,0.0534612,0.77371311,26.1494,07/14.0/2022,2000,g  8.5,6.0
# From MPEC 2022-K19
29P/Schwassmann-Wachmann,e,9.3655,312.3878,50.3550,6.044545,0.0663222,0.04483273,78.8388,07/14.0/2022,2000,g  4.0,4.0
# From MPEC 2022-K19
30P/Reinmuth,e,8.0952,117.7826,9.5172,3.721249,0.1373002,0.51801297,255.0502,07/14.0/2022,2000,g  9.5,6.0
# From MPEC 2021-F20
31P/Schwassmann-Wachmann,e,4.5478,114.1065,17.9771,4.236561,0.1130274,0.19217259,125.0366,07/14.0/2022,2000,g 13.1,4.0
# From MPEC 2022-K19
32P/ComasSola,e,9.8849,54.9127,54.8936,4.538176,0.1019488,0.55788486,294.0991,07/14.0/2022,2000,g  6.5,8.0
# From MPEC 2013-O31
33P/Daniel,e,22.2954,66.3063,20.4841,4.087187,0.1192799,0.45167477,258.3872,07/14.0/2022,2000,g 10.0,12.0
# From  15, 452
35P/Herschel-Rigollet,e,65.289,356.742,28.956,28.5516,0.006460,0.9742183,0.000,01/25.2275/2092,2000,g  9.0,4.0
# From MPEC 2022-ED3
36P/Whipple,e,9.9527,181.8414,200.9702,4.135866,0.1171802,0.26910413,90.5120,07/14.0/2022,2000,g  8.5,6.0
# From MPEC 2021-F20
37P/Forbes,e,8.9544,314.5660,330.1173,3.461172,0.1530627,0.53334245,234.4846,07/14.0/2022,2000,g 13.8,4.0
# From MPEC 2018-S50
38P/Stephan-Oterma,e,18.3789,77.9264,359.4974,11.23559,0.0261704,0.85925092,35.0828,07/14.0/2022,2000,g  3.5,12.0
# From MPEC 2022-A21
39P/Oterma,e,1.5483,298.4797,98.3978,7.331746,0.0496470,0.22049220,343.3741,07/14.0/2022,2000,g  7.0,6.0
# From MPC100283
40P/Vaisala,e,11.4684,133.7677,47.3797,4.954170,0.0893815,0.62994431,250.8153,07/14.0/2022,2000,g  5.5,12.0
# From MPC105240
41P/Tuttle-Giacobini-Kresak,e,9.2207,140.9892,62.2141,3.088352,0.1815992,0.65996892,348.8475,07/14.0/2022,2000,g 10.0,16.0
# From MPC 94283
42P/Neujmin,e,3.9915,150.1746,147.2363,4.873402,0.0916127,0.58492728,242.7222,07/14.0/2022,2000,g 13.0,6.0
# From MPEC 2022-C56
43P/Wolf-Harrington,e,9.3328,244.0618,224.0975,4.318901,0.1098106,0.43526357,237.0663,07/14.0/2022,2000,g  8.0,6.0
# From MPEC 2022-N37
44P/Reinmuth,e,5.8956,286.4525,58.0778,3.692142,0.1389270,0.42780741,11.3628,07/14.0/2022,2000,g  8.3,6.0
# From MPEC 2022-M21
45P/Honda-Mrkos-Pajdusakova,e,4.3227,87.7026,327.9080,3.054790,0.1846002,0.81759564,14.4078,07/14.0/2022,2000,g 13.5,8.0
# From MPEC 2021-O56
46P/Wirtanen,e,11.7474,82.1584,356.3271,3.091800,0.1812955,0.65854780,237.5068,07/14.0/2022,2000,g 14.0,6.0
# From MPEC 2022-HC2
47P/Ashbrook-Jackson,e,13.0414,356.9216,357.7054,4.122749,0.1177399,0.31867652,218.5971,07/14.0/2022,2000,g  1.0,11.2
# From MPEC 2021-F20
48P/Johnson,e,12.2026,110.1085,216.7130,3.501017,0.1504571,0.42731851,215.2464,07/14.0/2022,2000,g 12.4,4.0
# From MPEC 2021-F20
49P/Arend-Rigaux,e,19.0484,118.7941,332.9211,3.569631,0.1461400,0.59838557,213.5476,07/14.0/2022,2000,g 13.4,4.0
# From MPEC 2015-S97
50P/Arend,e,19.1006,355.1787,49.3257,4.087954,0.1192463,0.52944716,280.2317,07/14.0/2022,2000,g  9.5,6.0
# From NK 3013
51P-D/Harrington,e,5.4266,83.6593,269.3015,3.708022,0.1380355,0.54359225,348.9889,07/14.0/2022,2000,g 16.0,8.0
# From MPEC 2022-L66
52P/Harrington-Abell,e,10.2314,336.8368,139.5766,3.864426,0.1297408,0.54017367,36.5646,07/14.0/2022,2000,g 13.5,6.0
# From MPC100283
53P/Van Biesbroeck,e,6.6094,148.8116,134.5097,5.430425,0.0778849,0.55105585,176.4927,07/14.0/2022,2000,g  7.7,4.8
# From MPC 89011
54P/de Vico-Swift-NEAT,e,6.0647,358.8173,1.8408,3.789707,0.1335967,0.42639800,255.4431,07/14.0/2022,2000,g  9.0,4.0
# From MPC 31070
55P/Tempel-Tuttle,e,162.4808,235.4145,172.4788,10.35717,0.0295694,0.90560310,264.4297,07/14.0/2022,2000,g  9.0,4.0
# From MPC101100
56P/Slaughter-Burnham,e,8.1610,345.9935,44.0018,5.067132,0.0864094,0.50824366,188.6682,07/14.0/2022,2000,g  8.5,6.0
# From MPEC 2022-M88
57P/duToit-Neujmin-Delporte,e,2.8521,188.7704,115.2030,3.445740,0.1540921,0.50098295,41.5564,07/14.0/2022,2000,g 12.5,6.0
# From MPEC 2021-O56
58P/Jackson-Neujmin,e,13.1088,159.0745,200.5170,4.087149,0.1192816,0.66281867,92.7140,07/14.0/2022,2000,g 15.5,6.0
# From MPEC 2021-F20
59P/Kearns-Kwee,e,9.3423,312.8127,127.5030,4.484504,0.1037845,0.47573654,144.8926,07/14.0/2022,2000,g  7.0,6.0
# From MPEC 2021-F20
60P/Tsuchinshan,e,3.5820,267.4729,216.9862,3.525390,0.1488995,0.53372558,195.7271,07/14.0/2022,2000,g 11.5,6.0
# From MPEC 2022-N37
61P/Shajn-Schaldach,e,5.9997,162.9667,221.6873,3.692305,0.1389177,0.42428484,345.8461,07/14.0/2022,2000,g  6.0,10.0
# From MPC109147
62P/Tsuchinshan,e,4.7362,68.7988,47.3390,3.365536,0.1596330,0.62572019,275.5865,07/14.0/2022,2000,g  8.0,10.0
# From MPC 84320
63P/Wild,e,19.7298,358.0191,169.0243,5.609805,0.0741793,0.64925056,251.8660,07/14.0/2022,2000,g 10.5,6.0
# From MPEC 2021-F20
64P/Swift-Gehrels,e,8.9490,299.9488,97.1089,4.452803,0.1048948,0.68847645,141.2950,07/14.0/2022,2000,g 13.4,4.0
# From MPEC 2022-K19
65P/Gunn,e,9.1764,61.9968,213.9058,3.887915,0.1285668,0.24876393,222.5717,07/14.0/2022,2000,g  5.0,6.0
# From MPEC 2021-F20
66P/duToit,e,18.6402,21.7867,257.4655,6.069548,0.0659128,0.78618663,100.0227,07/14.0/2022,2000,g 15.0,4.0
# From MPEC 2022-M21
67P/Churyumov-Gerasimenko,e,3.8717,36.3304,22.1431,3.456551,0.1533697,0.64976903,38.9436,07/14.0/2022,2000,g 11.0,4.0
# From MPEC 2022-H04
68P/Klemola,e,11.1116,175.0450,153.2178,4.957409,0.0892939,0.63745736,87.3166,07/14.0/2022,2000,g 12.7,4.0
# From MPC114607
69P/Taylor,e,22.0402,104.8122,343.3960,3.885375,0.1286929,0.41355248,156.2035,07/14.0/2022,2000,g  9.5,12.0
# From MPEC 2022-N37
70P/Kojima,e,6.5977,119.2648,1.8139,3.677990,0.1397295,0.45383340,35.3401,07/14.0/2022,2000,g 11.0,6.0
# From MPEC 2022-M88
71P/Clark,e,9.4377,59.3953,209.0668,3.139030,0.1772193,0.49386984,325.8330,07/14.0/2022,2000,g  9.8,6.0
# From MPC 89011
72P/Denning-Fujikawa,e,10.9481,26.6999,346.7171,4.308642,0.1102030,0.81864825,322.8741,07/14.0/2022,2000,g 17.5,10.0
# From MPEC 2022-N37
73P/Schwassmann-Wachmann,e,11.2278,69.6100,199.4891,3.092124,0.1812670,0.68533984,352.2431,07/14.0/2022,2000,g 11.5,6.0
# From MPC106348
73P-T/Schwassmann-Wachmann,e,11.2297,69.6130,199.4686,3.093601,0.1811372,0.68553937,351.9930,07/14.0/2022,2000,g 11.5,6.0
# From MPEC 2022-L66
74P/Smirnova-Chernykh,e,6.1153,58.1876,133.3344,4.522614,0.1024754,0.10938662,154.0398,07/14.0/2022,2000,g  5.0,6.0
# From MPEC 2022-K19
76P/West-Kohoutek-Ikemura,e,30.4731,84.1059,359.9378,3.471165,0.1524021,0.53847962,151.1587,07/14.0/2022,2000,g  8.0,12.0
# From MPEC 2022-M21
77P/Longmore,e,24.3186,14.7688,196.7652,3.623529,0.1428915,0.35187407,322.3879,07/14.0/2022,2000,g  7.0,8.0
# From MPEC 2021-O56
78P/Gehrels,e,6.2555,210.5155,192.6337,3.737563,0.1364021,0.46266222,163.3307,07/14.0/2022,2000,g  5.5,8.0
# From MPC 94675
79P/du Toit-Hartley,e,3.1482,280.5264,281.7795,2.943374,0.1951803,0.61898002,273.4480,07/14.0/2022,2000,g 16.0,4.0
# From MPEC 2014-P41
80P/Peters-Hartley,e,29.9223,259.7995,339.2474,4.024354,0.1220843,0.59862286,341.9478,07/14.0/2022,2000,g  9.0,4.0
# From MPEC 2022-H30
81P/Wild,e,3.2366,136.0987,41.6407,3.453529,0.1535711,0.53717306,336.2517,07/14.0/2022,2000,g  7.0,6.0
# From MPC133426
82P/Gehrels,e,1.1291,239.3176,226.4359,4.133866,0.1172653,0.12186305,173.7595,07/14.0/2022,2000,g 15.0,4.0
# From MPEC 2020-FB5
